MALLIGYONG-1            
1 58400U 23179A   24196.61118645  .00007390  00000+0  33208-3 0  9990
2 58400  97.4004  82.9946 0003744  97.3535 262.8127 15.21426657 35893
